NORAD_CAT_ID,OBJECT_NAME,OBJECT_TYPE,EPOCH,MEAN_MOTION,ECCENTRICITY,INCLINATION,RA_OF_ASC_NODE,ARG_OF_PERICENTER,MEAN_ANOMALY,BSTAR,MEAN_MOTION_DOT,MEAN_MOTION_DDOT,TLE_LINE0,TLE_LINE1,TLE_LINE2,SEMIMAJOR_AXIS,PERIOD,APOGEE,PERIGEE,DECAYED
51792.0,STARLINK-3626,PAYLOAD,2023-05-13 17:46:11,15.0884374,6.72e-05,53.2154,297.2304,75.6807,284.426,0.00019007,2.739e-05,0.0,0 STARLINK-3626,1 51792U 22017AA  23133.74041077  .00002739  00000-0  19007-3 0  9999,2 51792  53.2154 297.2304 0000672  75.6807 284.4260 15.08843740 68337,6917.869,95.437,540.199,539.269,0.0
51792.0,STARLINK-3626,PAYLOAD,2023-05-14 03:18:29,15.08852158,7.21e-05,53.2155,295.4461,76.8659,283.2414,0.00020086,2.911e-05,0.0,0 STARLINK-3626,1 51792U 22017AA  23134.13784516  .00002911  00000-0  20086-3 0  9996,2 51792  53.2155 295.4461 0000721  76.8659 283.2414 15.08852158 68392,6917.843,95.437,540.207,539.209,0.0
51792.0,STARLINK-3626,PAYLOAD,2023-05-14 14:26:12,15.08832975,8.93e-05,53.2162,293.3626,77.7294,282.3798,-6.4344e-05,-1.311e-05,0.0,0 STARLINK-3626,1 51792U 22017AA  23134.60153550 -.00001311  00000-0 -64344-4 0  9997,2 51792  53.2162 293.3626 0000893  77.7294 282.3798 15.08832975 68463,6917.902,95.438,540.385,539.149,0.0
51792.0,STARLINK-3626,PAYLOAD,2023-05-14 20:47:44,15.0884154,8.79e-05,53.2158,292.1732,76.7278,283.3812,0.00010324,1.356e-05,0.0,0 STARLINK-3626,1 51792U 22017AA  23134.86649263  .00001356  00000-0  10324-3 0  9991,2 51792  53.2158 292.1732 0000879  76.7278 283.3812 15.08841540 68509,6917.876,95.437,540.349,539.133,0.0
51792.0,STARLINK-3626,PAYLOAD,2023-05-15 03:09:17,15.08835695,8.89e-05,53.2159,290.9845,79.8628,280.2464,-4.3016e-06,-3.56e-06,0.0,0 STARLINK-3626,1 51792U 22017AA  23135.13145604 -.00000356  00000-0 -43016-5 0  9999,2 51792  53.2159 290.9845 0000889  79.8628 280.2464 15.08835695 68542,6917.894,95.438,540.374,539.144,0.0
51792.0,STARLINK-3626,PAYLOAD,2023-05-15 17:27:45,15.08844639,7.43e-05,53.2162,288.3085,86.8637,273.244,9.9386e-05,1.295e-05,0.0,0 STARLINK-3626,1 51792U 22017AA  23135.72761326  .00001295  00000-0  99386-4 0  9990,2 51792  53.2162 288.3085 0000743  86.8637 273.2440 15.08844639 68634,6917.866,95.437,540.245,539.217,0.0
51792.0,STARLINK-3626,PAYLOAD,2023-05-16 18:53:56,15.08835966,9.49e-05,53.2163,283.5519,92.5167,267.5933,6.7391e-06,-1.8e-06,0.0,0 STARLINK-3626,1 51792U 22017AA  23136.78745827 -.00000180  00000-0  67391-5 0  9990,2 51792  53.2163 283.5519 0000949  92.5167 267.5933 15.08835966 68797,6917.893,95.438,540.414,539.101,0.0
51792.0,STARLINK-3626,PAYLOAD,2023-05-17 17:09:20,15.08823146,0.0001109,53.217,279.3883,100.2354,259.8763,0.00040759,6.202e-05,0.0,0 STARLINK-3626,1 51792U 22017AA  23137.71482069  .00006202  00000-0  40759-3 0  9997,2 51792  53.2170 279.3883 0001109 100.2354 259.8763 15.08823146 68934,6917.932,95.439,540.564,539.03,0.0
51792.0,STARLINK-3626,PAYLOAD,2023-05-18 09:03:11,15.08837695,0.0001005,53.2171,276.4142,89.748,270.3627,7.6131e-05,9.24e-06,0.0,0 STARLINK-3626,1 51792U 22017AA  23138.37722006  .00000924  00000-0  76131-4 0  9997,2 51792  53.2171 276.4142 0001005  89.7480 270.3627 15.08837695 69030,6917.887,95.438,540.448,539.057,0.0
51792.0,STARLINK-3626,PAYLOAD,2023-05-19 12:04:44,15.0884389,9.82e-05,53.2165,271.358,87.557,272.5534,6.605e-05,7.64e-06,0.0,0 STARLINK-3626,1 51792U 22017AA  23139.50329702  .00000764  00000-0  66050-4 0  9990,2 51792  53.2165 271.3580 0000982  87.5570 272.5534 15.08843890 69206,6917.868,95.437,540.413,539.054,0.0
51792.0,STARLINK-3626,PAYLOAD,2023-05-20 15:06:17,15.08853991,0.0001081,53.2176,266.3055,89.9826,270.129,0.00017493,2.498e-05,0.0,0 STARLINK-3626,1 51792U 22017AA  23140.62936732  .00002498  00000-0  17493-3 0  9994,2 51792  53.2176 266.3055 0001081  89.9826 270.1290 15.08853991 69374,6917.838,95.437,540.45,538.955,0.0
51792.0,STARLINK-3626,PAYLOAD,2023-05-21 11:46:19,15.08839434,9.55e-05,53.2165,262.4362,89.0576,271.0526,3.1102e-05,2.07e-06,0.0,0 STARLINK-3626,1 51792U 22017AA  23141.49049905  .00000207  00000-0  31102-4 0  9997,2 51792  53.2165 262.4362 0000955  89.0576 271.0526 15.08839434 69505,6917.882,95.438,540.408,539.086,0.0
51792.0,STARLINK-3626,PAYLOAD,2023-05-21 13:21:42,15.08840277,9.35e-05,53.2162,262.1394,92.8437,267.2662,3.8118e-05,3.19e-06,0.0,0 STARLINK-3626,1 51792U 22017AA  23141.55673824  .00000319  00000-0  38118-4 0  9995,2 51792  53.2162 262.1394 0000935  92.8437 267.2662 15.08840277 69516,6917.88,95.438,540.391,539.098,0.0
51792.0,STARLINK-3626,PAYLOAD,2023-05-22 10:01:43,15.08820496,0.0001644,53.216,258.2743,133.6211,226.4918,0.00020766,3.017e-05,0.0,0 STARLINK-3626,1 51792U 22017AA  23142.41786373  .00003017  00000-0  20766-3 0  9992,2 51792  53.2160 258.2743 0001644 133.6211 226.4918 15.08820496 69646,6917.94,95.439,540.942,538.668,0.0
51792.0,STARLINK-3626,PAYLOAD,2023-05-22 11:37:06,15.08844605,9.24e-05,53.2158,257.9773,117.3968,242.7118,-0.00010748,-1.998e-05,0.0,0 STARLINK-3626,1 51792U 22017AA  23142.48410084 -.00001998  00000-0 -10748-3 0  9999,2 51792  53.2158 257.9773 0000924 117.3968 242.7118 15.08844605 69652,6917.866,95.437,540.371,539.092,0.0
51792.0,STARLINK-3626,PAYLOAD,2023-05-22 13:12:29,15.08845689,8.66e-05,53.2157,257.68,111.8229,248.2855,-8.635e-05,-1.662e-05,0.0,0 STARLINK-3626,1 51792U 22017AA  23142.55033942 -.00001662  00000-0 -86350-4 0  9992,2 51792  53.2157 257.6800 0000866 111.8229 248.2855 15.08845689 69666,6917.863,95.437,540.327,539.129,0.0
51792.0,STARLINK-3626,PAYLOAD,2023-05-23 11:27:54,15.08829078,9.41e-05,53.2157,253.5165,114.9018,245.2072,3.1672e-05,2.16e-06,0.0,0 STARLINK-3626,1 51792U 22017AA  23143.47770946  .00000216  00000-0  31672-4 0  9995,2 51792  53.2157 253.5165 0000941 114.9018 245.2072 15.08829078 69807,6917.914,95.438,540.43,539.128,0.0
51792.0,STARLINK-3626,PAYLOAD,2023-05-23 14:38:40,15.08830887,9.32e-05,53.2159,252.9217,111.0874,249.0217,4.2351e-05,3.86e-06,0.0,0 STARLINK-3626,1 51792U 22017AA  23143.61018884  .00000386  00000-0  42351-4 0  9991,2 51792  53.2159 252.9217 0000932 111.0874 249.0217 15.08830887 69823,6917.908,95.438,540.418,539.128,0.0
51792.0,STARLINK-3626,PAYLOAD,2023-05-24 14:29:27,15.08840184,8.83e-05,53.2164,248.4615,86.7119,273.3974,0.00010305,1.353e-05,0.0,0 STARLINK-3626,1 51792U 22017AA  23144.60378560  .00001353  00000-0  10305-3 0  9999,2 51792  53.2164 248.4615 0000883  86.7119 273.3974 15.08840184 69973,6917.88,95.438,540.356,539.134,0.0
51792.0,STARLINK-3626,PAYLOAD,2023-05-25 14:20:14,15.08840673,0.0001029,53.2171,244.0014,87.1057,273.0053,0.00013756,1.902e-05,0.0,0 STARLINK-3626,1 51792U 22017AA  23145.59738590  .00001902  00000-0  13756-3 0  9994,2 51792  53.2171 244.0014 0001029  87.1057 273.0053 15.08840673 70122,6917.878,95.438,540.455,539.031,0.0
51792.0,STARLINK-3626,PAYLOAD,2023-05-25 15:55:37,15.08843717,0.0001047,53.217,243.7037,87.6418,272.4694,0.00016018,2.263e-05,0.0,0 STARLINK-3626,1 51792U 22017AA  23145.66362347  .00002263  00000-0  16018-3 0  9990,2 51792  53.2170 243.7037 0001047  87.6418 272.4694 15.08843717 70135,6917.869,95.437,540.458,539.01,0.0
51792.0,STARLINK-3626,PAYLOAD,2023-05-26 12:35:37,15.08845776,9.7e-05,53.2161,239.8376,88.3127,271.7977,5.17e-05,5.35e-06,0.0,0 STARLINK-3626,1 51792U 22017AA  23146.52474283  .00000535  00000-0  51700-4 0  9997,2 51792  53.2161 239.8376 0000970  88.3127 271.7977 15.08845776 70263,6917.863,95.437,540.399,539.057,0.0
51792.0,STARLINK-3626,PAYLOAD,2023-05-26 23:43:19,15.08843488,9.16e-05,53.2159,237.7565,91.1986,268.9111,3.9218e-05,3.37e-06,0.0,0 STARLINK-3626,1 51792U 22017AA  23146.98842265  .00000337  00000-0  39218-4 0  9996,2 51792  53.2159 237.7565 0000916  91.1986 268.9111 15.08843488 70336,6917.87,95.437,540.368,539.101,0.0
51792.0,STARLINK-3626,PAYLOAD,2023-05-27 10:51:02,15.08836502,9.97e-05,53.2161,235.6741,91.3885,268.7221,-6.1271e-06,-3.85e-06,0.0,0 STARLINK-3626,1 51792U 22017AA  23147.45210806 -.00000385  00000-0 -61271-5 0  9999,2 51792  53.2161 235.6741 0000997  91.3885 268.7221 15.08836502 70408,6917.891,95.438,540.446,539.066,0.0
51792.0,STARLINK-3626,PAYLOAD,2023-05-27 15:37:11,15.08840172,9.23e-05,53.2162,234.7813,109.9778,250.1313,-2.5591e-06,-3.28e-06,0.0,0 STARLINK-3626,1 51792U 22017AA  23147.65082490 -.00000328  00000-0 -25591-5 0  9999,2 51792  53.2162 234.7813 0000923 109.9778 250.1313 15.08840172 70433,6917.88,95.438,540.383,539.106,0.0
51792.0,STARLINK-3626,PAYLOAD,2023-05-28 05:55:39,15.08837916,0.0001069,53.216,232.1049,99.4926,260.6187,-2.8903e-06,-3.34e-06,0.0,0 STARLINK-3626,1 51792U 22017AA  23148.24698734 -.00000334  00000-0 -28903-5 0  9996,2 51792  53.2160 232.1049 0001069  99.4926 260.6187 15.08837916 70521,6917.887,95.438,540.491,539.012,0.0
51792.0,STARLINK-3626,PAYLOAD,2023-05-28 10:41:49,15.08839336,0.0001038,53.216,231.213,98.2327,261.8783,1.0114e-05,-1.27e-06,0.0,0 STARLINK-3626,1 51792U 22017AA  23148.44570602 -.00000127  00000-0  10114-4 0  9994,2 51792  53.2160 231.2130 0001038  98.2327 261.8783 15.08839336 70556,6917.882,95.438,540.465,539.029,0.0
51792.0,STARLINK-3626,PAYLOAD,2023-05-29 10:32:35,15.08838852,0.0001028,53.2162,226.7521,97.5216,262.5893,7.3268e-05,8.78e-06,0.0,0 STARLINK-3626,1 51792U 22017AA  23149.43930468  .00000878  00000-0  73268-4 0  9995,2 51792  53.2162 226.7521 0001028  97.5216 262.5893 15.08838852 70708,6917.884,95.438,540.46,539.038,0.0
51792.0,STARLINK-3626,PAYLOAD,2023-05-29 12:07:59,15.08840221,0.0001,53.2162,226.455,95.4921,264.6185,6.1222e-05,6.87e-06,0.0,0 STARLINK-3626,1 51792U 22017AA  23149.50554425  .00000687  00000-0  61222-4 0  9993,2 51792  53.2162 226.4550 0001000  95.4921 264.6185 15.08840221 70718,6917.88,95.438,540.437,539.053,0.0
51792.0,STARLINK-3626,PAYLOAD,2023-05-29 21:40:18,15.08835543,9.92e-05,53.216,224.6711,91.4133,268.6973,2.8606e-05,1.68e-06,0.0,0 STARLINK-3626,1 51792U 22017AA  23149.90298879  .00000168  00000-0  28606-4 0  9998,2 51792  53.2160 224.6711 0000992  91.4133 268.6973 15.08835543 70771,6917.894,95.438,540.445,539.073,0.0
